QIANFAN-17              
1 60395U 24140S   25200.82586985  .00000128  00000+0  17980-3 0  9992
2 60395  88.9855 314.4871 0013000 265.2232  94.7435 13.50957972 48431
QIANFAN-18              
1 60396U 24140T   25200.87943168  .00000104  00000+0  14223-3 0  9999
2 60396  88.9848 314.0265 0012612 245.0081 114.9760 13.50953428 47834
QIANFAN-19              
1 61552U 24185A   25200.82591783  .00000312  00000+0  15641-3 0  9996
2 61552  88.9825  94.6785 0009351  61.0657 299.1466 14.14105126 49042
QIANFAN-20              
1 61553U 24185B   25200.93367127  .00000279  00000+0  15411-3 0  9999
2 61553  88.9824  94.8427 0008542  87.0519 273.1642 14.08658502 48965
QIANFAN-21              
1 61554U 24185C   25200.85395812  .00000454  00000+0  19754-3 0  9992
2 61554  88.9738  94.0842 0012809 111.2731 248.9829 14.22346758 49231
QIANFAN-22              
1 61555U 24185D   25200.84037592  .00000221  00000+0  18006-3 0  9991
2 61555  88.9810  95.2474 0009142  80.8771 279.3434 13.86231138 48725
QIANFAN-23              
1 61556U 24185E   25200.93512610  .00000393  00000+0  19193-3 0  9999
2 61556  88.9817  94.5432 0010341  69.7956 290.4343 14.16074144 49116
QIANFAN-24              
1 61557U 24185F   25200.83929812  .00000514  00000+0  21925-3 0  9996
2 61557  88.9797  94.1981 0011828  59.5157 300.7201 14.23549523 49260
